[
  {
    "OBJECT_NAME": "STARLINK-30368",
    "OBJECT_ID": "2023-131W",
    "EPOCH": "2025-06-21T07:08:53.994624",
    "MEAN_MOTION": 15.02536455,
    "ECCENTRICITY": 0.0001103,
    "INCLINATION": 43.0026,
    "RA_OF_ASC_NODE": 152.1226,
    "ARG_OF_PERICENTER": 272.7282,
    "MEAN_ANOMALY": 87.3434,
    "EPHEMERIS_TYPE": 0,
    "CLASSIFICATION_TYPE": "U",
    "NORAD_CAT_ID": 57752,
    "ELEMENT_SET_NO": 999,
    "REV_AT_EPOCH": 10060,
    "BSTAR": 6.929e-05,
    "MEAN_MOTION_DOT": 7.33e-06,
    "MEAN_MOTION_DDOT": 0
  },
  {
    "OBJECT_NAME": "STARLINK-30343",
    "OBJECT_ID": "2023-131X",
    "EPOCH": "2025-06-21T08:11:03.956928",
    "MEAN_MOTION": 15.0253799,
    "ECCENTRICITY": 0.0001289,
    "INCLINATION": 43.0025,
    "RA_OF_ASC_NODE": 151.6174,
    "ARG_OF_PERICENTER": 314.8485,
    "MEAN_ANOMALY": 45.2252,
    "EPHEMERIS_TYPE": 0,
    "CLASSIFICATION_TYPE": "U",
    "NORAD_CAT_ID": 57753,
    "ELEMENT_SET_NO": 999,
    "REV_AT_EPOCH": 10061,
    "BSTAR": 4.1602e-05,
    "MEAN_MOTION_DOT": 3.58e-06,
    "MEAN_MOTION_DDOT": 0
  },
  {
    "OBJECT_NAME": "STARLINK-30397",
    "OBJECT_ID": "2023-134A",
    "EPOCH": "2025-06-21T06:39:28.918656",
    "MEAN_MOTION": 15.02533096,
    "ECCENTRICITY": 0.0001402,
    "INCLINATION": 43.0025,
    "RA_OF_ASC_NODE": 178.3298,
    "ARG_OF_PERICENTER": 279.8874,
    "MEAN_ANOMALY": 80.181,
    "EPHEMERIS_TYPE": 0,
    "CLASSIFICATION_TYPE": "U",
    "NORAD_CAT_ID": 57771,
    "ELEMENT_SET_NO": 999,
    "REV_AT_EPOCH": 10014,
    "BSTAR": 8.3007e-05,
    "MEAN_MOTION_DOT": 9.18e-06,
    "MEAN_MOTION_DDOT": 0
  },
  {
    "OBJECT_NAME": "STARLINK-30354",
    "OBJECT_ID": "2023-134B",
    "EPOCH": "2025-06-21T10:09:55.554624",
    "MEAN_MOTION": 15.02537681,
    "ECCENTRICITY": 0.0001447,
    "INCLINATION": 43.0028,
    "RA_OF_ASC_NODE": 176.8448,
    "ARG_OF_PERICENTER": 285.0404,
    "MEAN_ANOMALY": 75.0278,
    "EPHEMERIS_TYPE": 0,
    "CLASSIFICATION_TYPE": "U",
    "NORAD_CAT_ID": 57772,
    "ELEMENT_SET_NO": 999,
    "REV_AT_EPOCH": 10017,
    "BSTAR": -2.5311e-05,
    "MEAN_MOTION_DOT": -5.46e-06,
    "MEAN_MOTION_DDOT": 0
  },
  {
    "OBJECT_NAME": "STARLINK-30383",
    "OBJECT_ID": "2023-134C",
    "EPOCH": "2025-06-21T01:47:28.782816",
    "MEAN_MOTION": 15.02539618,
    "ECCENTRICITY": 0.0001543,
    "INCLINATION": 43.0021,
    "RA_OF_ASC_NODE": 179.3878,
    "ARG_OF_PERICENTER": 283.0682,
    "MEAN_ANOMALY": 76.9988,
    "EPHEMERIS_TYPE": 0,
    "CLASSIFICATION_TYPE": "U",
    "NORAD_CAT_ID": 57773,
    "ELEMENT_SET_NO": 999,
    "REV_AT_EPOCH": 10011,
    "BSTAR": 1.6611e-05,
    "MEAN_MOTION_DOT": 2.1e-07,
    "MEAN_MOTION_DDOT": 0
  },
  {
    "OBJECT_NAME": "STARLINK-30384",
    "OBJECT_ID": "2023-134D",
    "EPOCH": "2025-06-21T08:00:49.851648",
    "MEAN_MOTION": 15.02528692,
    "ECCENTRICITY": 0.0001758,
    "INCLINATION": 43.0029,
    "RA_OF_ASC_NODE": 177.892,
    "ARG_OF_PERICENTER": 251.291,
    "MEAN_ANOMALY": 108.7742,
    "EPHEMERIS_TYPE": 0,
    "CLASSIFICATION_TYPE": "U",
    "NORAD_CAT_ID": 57774,
    "ELEMENT_SET_NO": 999,
    "REV_AT_EPOCH": 10015,
    "BSTAR": 5.7827e-05,
    "MEAN_MOTION_DOT": 5.77e-06,
    "MEAN_MOTION_DDOT": 0
  },
  {
    "OBJECT_NAME": "STARLINK-30305",
    "OBJECT_ID": "2023-134E",
    "EPOCH": "2025-06-21T17:39:58.035168",
    "MEAN_MOTION": 15.02536715,
    "ECCENTRICITY": 0.0001072,
    "INCLINATION": 43.0019,
    "RA_OF_ASC_NODE": 175.7499,
    "ARG_OF_PERICENTER": 289.8679,
    "MEAN_ANOMALY": 70.2047,
    "EPHEMERIS_TYPE": 0,
    "CLASSIFICATION_TYPE": "U",
    "NORAD_CAT_ID": 57775,
    "ELEMENT_SET_NO": 999,
    "REV_AT_EPOCH": 9997,
    "BSTAR": -1.5163e-05,
    "MEAN_MOTION_DOT": -4.08e-06,
    "MEAN_MOTION_DDOT": 0
  },
  {
    "OBJECT_NAME": "STARLINK-30360",
    "OBJECT_ID": "2023-134F",
    "EPOCH": "2025-06-21T11:07:27.755616",
    "MEAN_MOTION": 15.02540659,
    "ECCENTRICITY": 0.0001539,
    "INCLINATION": 43.0028,
    "RA_OF_ASC_NODE": 177.1458,
    "ARG_OF_PERICENTER": 283.1621,
    "MEAN_ANOMALY": 76.9049,
    "EPHEMERIS_TYPE": 0,
    "CLASSIFICATION_TYPE": "U",
    "NORAD_CAT_ID": 57776,
    "ELEMENT_SET_NO": 999,
    "REV_AT_EPOCH": 10017,
    "BSTAR": -4.0402e-06,
    "MEAN_MOTION_DOT": -2.58e-06,
    "MEAN_MOTION_DDOT": 0
  },
  {
    "OBJECT_NAME": "STARLINK-30355",
    "OBJECT_ID": "2023-134G",
    "EPOCH": "2025-06-21T17:20:46.680000",
    "MEAN_MOTION": 15.02529907,
    "ECCENTRICITY": 0.0001679,
    "INCLINATION": 43.002,
    "RA_OF_ASC_NODE": 175.6248,
    "ARG_OF_PERICENTER": 291.4443,
    "MEAN_ANOMALY": 68.622,
    "EPHEMERIS_TYPE": 0,
    "CLASSIFICATION_TYPE": "U",
    "NORAD_CAT_ID": 57777,
    "ELEMENT_SET_NO": 999,
    "REV_AT_EPOCH": 10020,
    "BSTAR": 9.5479e-06,
    "MEAN_MOTION_DOT": -7.5e-07,
    "MEAN_MOTION_DDOT": 0
  },
  {
    "OBJECT_NAME": "STARLINK-30385",
    "OBJECT_ID": "2023-134H",
    "EPOCH": "2025-06-21T08:15:35.457696",
    "MEAN_MOTION": 15.02533336,
    "ECCENTRICITY": 0.0001331,
    "INCLINATION": 43.0025,
    "RA_OF_ASC_NODE": 165.1153,
    "ARG_OF_PERICENTER": 272.0473,
    "MEAN_ANOMALY": 88.0217,
    "EPHEMERIS_TYPE": 0,
    "CLASSIFICATION_TYPE": "U",
    "NORAD_CAT_ID": 57778,
    "ELEMENT_SET_NO": 999,
    "REV_AT_EPOCH": 10014,
    "BSTAR": -8.5229e-05,
    "MEAN_MOTION_DOT": -1.355e-05,
    "MEAN_MOTION_DDOT": 0
  },
  {
    "OBJECT_NAME": "STARLINK-30359",
    "OBJECT_ID": "2023-134J",
    "EPOCH": "2025-06-21T16:04:38.726688",
    "MEAN_MOTION": 15.02534263,
    "ECCENTRICITY": 0.0001206,
    "INCLINATION": 43.0039,
    "RA_OF_ASC_NODE": 163.2953,
    "ARG_OF_PERICENTER": 277.906,
    "MEAN_ANOMALY": 82.1645,
    "EPHEMERIS_TYPE": 0,
    "CLASSIFICATION_TYPE": "U",
    "NORAD_CAT_ID": 57779,
    "ELEMENT_SET_NO": 999,
    "REV_AT_EPOCH": 10018,
    "BSTAR": 2.7287e-05,
    "MEAN_MOTION_DOT": 1.65e-06,
    "MEAN_MOTION_DDOT": 0
  },
  {
    "OBJECT_NAME": "STARLINK-30380",
    "OBJECT_ID": "2023-134K",
    "EPOCH": "2025-06-21T10:19:30.920736",
    "MEAN_MOTION": 15.02535422,
    "ECCENTRICITY": 0.0001843,
    "INCLINATION": 43.0027,
    "RA_OF_ASC_NODE": 176.89,
    "ARG_OF_PERICENTER": 290.0521,
    "MEAN_ANOMALY": 70.0123,
    "EPHEMERIS_TYPE": 0,
    "CLASSIFICATION_TYPE": "U",
    "NORAD_CAT_ID": 57780,
    "ELEMENT_SET_NO": 999,
    "REV_AT_EPOCH": 10017,
    "BSTAR": 1.0171e-05,
    "MEAN_MOTION_DOT": -6.6e-07,
    "MEAN_MOTION_DDOT": 0
  },
  {
    "OBJECT_NAME": "STARLINK-30369",
    "OBJECT_ID": "2023-134L",
    "EPOCH": "2025-06-21T07:41:36.460032",
    "MEAN_MOTION": 15.02531197,
    "ECCENTRICITY": 0.0001868,
    "INCLINATION": 43.0025,
    "RA_OF_ASC_NODE": 177.7808,
    "ARG_OF_PERICENTER": 280.2743,
    "MEAN_ANOMALY": 79.7888,
    "EPHEMERIS_TYPE": 0,
    "CLASSIFICATION_TYPE": "U",
    "NORAD_CAT_ID": 57781,
    "ELEMENT_SET_NO": 999,
    "REV_AT_EPOCH": 10015,
    "BSTAR": -6.2942e-05,
    "MEAN_MOTION_DOT": -1.054e-05,
    "MEAN_MOTION_DDOT": 0
  },
  {
    "OBJECT_NAME": "STARLINK-30376",
    "OBJECT_ID": "2023-134M",
    "EPOCH": "2025-06-21T07:12:51.435648",
    "MEAN_MOTION": 15.02533037,
    "ECCENTRICITY": 0.0001494,
    "INCLINATION": 43.0027,
    "RA_OF_ASC_NODE": 177.6454,
    "ARG_OF_PERICENTER": 283.6074,
    "MEAN_ANOMALY": 76.4602,
    "EPHEMERIS_TYPE": 0,
    "CLASSIFICATION_TYPE": "U",
    "NORAD_CAT_ID": 57782,
    "ELEMENT_SET_NO": 999,
    "REV_AT_EPOCH": 10015,
    "BSTAR": 4.6145e-06,
    "MEAN_MOTION_DOT": -1.41e-06,
    "MEAN_MOTION_DDOT": 0
  }
]