STARLINK-30368          
1 57752U 23131W   25172.29784716  .00000733  00000+0  69290-4 0  9999
2 57752  43.0026 152.1226 0001103 272.7282  87.3434 15.02536455100609
STARLINK-30343          
1 57753U 23131X   25172.34101802  .00000358  00000+0  41602-4 0  9995
2 57753  43.0025 151.6174 0001289 314.8485  45.2252 15.02537990100610
STARLINK-30397          
1 57771U 23134A   25172.27741804  .00000918  00000+0  83007-4 0  9999
2 57771  43.0025 178.3298 0001402 279.8874  80.1810 15.02533096100141
STARLINK-30354          
1 57772U 23134B   25172.42355966 -.00000546  00000+0 -25311-4 0  9990
2 57772  43.0028 176.8448 0001447 285.0404  75.0278 15.02537681100170
STARLINK-30383          
1 57773U 23134C   25172.07463869  .00000021  00000+0  16611-4 0  9993
2 57773  43.0021 179.3878 0001543 283.0682  76.9988 15.02539618100116
STARLINK-30384          
1 57774U 23134D   25172.33391032  .00000577  00000+0  57827-4 0  9995
2 57774  43.0029 177.8920 0001758 251.2910 108.7742 15.02528692100151
STARLINK-30305          
1 57775U 23134E   25172.73608837 -.00000408  00000+0 -15163-4 0  9996
2 57775  43.0019 175.7499 0001072 289.8679  70.2047 15.02536715 99970
STARLINK-30360          
1 57776U 23134F   25172.46351569 -.00000258  00000+0 -40402-5 0  9992
2 57776  43.0028 177.1458 0001539 283.1621  76.9049 15.02540659100176
STARLINK-30355          
1 57777U 23134G   25172.72276250 -.00000075  00000+0  95479-5 0  9995
2 57777  43.0020 175.6248 0001679 291.4443  68.6220 15.02529907100204
STARLINK-30385          
1 57778U 23134H   25172.34416039 -.00001355  00000+0 -85229-4 0  9999
2 57778  43.0025 165.1153 0001331 272.0473  88.0217 15.02533336100148
STARLINK-30359          
1 57779U 23134J   25172.66989267  .00000165  00000+0  27287-4 0  9999
2 57779  43.0039 163.2953 0001206 277.9060  82.1645 15.02534263100182
STARLINK-30380          
1 57780U 23134K   25172.43021899 -.00000066  00000+0  10171-4 0  9999
2 57780  43.0027 176.8900 0001843 290.0521  70.0123 15.02535422100172
STARLINK-30369          
1 57781U 23134L   25172.32056088 -.00001054  00000+0 -62942-4 0  9998
2 57781  43.0025 177.7808 0001868 280.2743  79.7888 15.02531197100159
STARLINK-30376          
1 57782U 23134M   25172.30059532 -.00000141  00000+0  46145-5 0  9997
2 57782  43.0027 177.6454 0001494 283.6074  76.4602 15.02533037100150
